IRIDIUM 155             
1 43573U 18061E   24241.54280677  .00000088  00000+0  24344-4 0  9996
2 43573  86.4009 331.5262 0001939  91.1925 268.9493 14.34217610319094
IRIDIUM 154             
1 43574U 18061F   24241.52377843  .00000341  00000+0  11473-3 0  9997
2 43574  86.4014 331.6353 0002393  94.5313 265.6156 14.34219290319148
IRIDIUM 163             
1 43575U 18061G   24241.50475040  .00000861  00000+0  30039-3 0  9990
2 43575  86.4009 331.5792 0002281  91.8342 268.3115 14.34219471319110
IRIDIUM 156             
1 43576U 18061H   24241.54914802  .00000402  00000+0  13644-3 0  9993
2 43576  86.4012 331.5674 0001982  98.1999 261.9422 14.34217930319117
IRIDIUM 164             
1 43577U 18061J   24241.53012184  .00000102  00000+0  29479-4 0  9996
2 43577  86.4014 331.6051 0002328 100.3467 259.7992 14.34217837319158
IRIDIUM 159             
1 43578U 18061K   24241.28910191  .00000433  00000+0  14745-3 0  9990
2 43578  86.4011 331.6563 0002301  95.9853 264.1605 14.34219536319084
IRIDIUM 180             
1 43922U 19002A   24241.56767834  .00000033  00000+0  48345-5 0  9995
2 43922  86.3914 268.3943 0002486  94.5592 265.5888 14.34218679294734
IRIDIUM 176             
1 43923U 19002B   24241.36744135  .00001971  00000+0  30869-3 0  9995
2 43923  86.6045 268.4939 0002547  93.4654 266.6854 14.72250543302467
IRIDIUM 168             
1 43924U 19002C   24241.56133075  .00000051  00000+0  11014-4 0  9993
2 43924  86.3916 268.4557 0002363  94.3953 265.7513 14.34217142294712
IRIDIUM 173             
1 43925U 19002D   24241.54865218  .00000351  00000+0  11827-3 0  9997
2 43925  86.3913 268.3769 0002396  92.4983 267.6487 14.34220104294692
IRIDIUM 169             
1 43926U 19002E   24241.53288195  .00000868  00000+0  27715-3 0  9996
2 43926  86.4214 300.0290 0002778  49.6865 310.4576 14.38600501295670
IRIDIUM 172             
1 43927U 19002F   24241.54230868  .00000679  00000+0  23533-3 0  9996
2 43927  86.3914 268.3853 0002051  92.1791 267.9640 14.34221180294702
IRIDIUM 175             
1 43928U 19002G   24241.43005258  .00001130  00000+0  17516-3 0  9995
2 43928  86.1477 237.5274 0002379  86.8749 273.2739 14.72257683302467
IRIDIUM 171             
1 43929U 19002H   24241.52327460  .00000666  00000+0  23085-3 0  9999
2 43929  86.3922 268.6269 0002125  99.7181 260.4254 14.34219038294691
IRIDIUM 170             
1 43930U 19002J   24241.50956752  .00000992  00000+0  15349-3 0  9997
2 43930  86.6045 268.4398 0002607  91.7292 268.4224 14.72248860302493
IRIDIUM 167             
1 43931U 19002K   24241.51693301  .00000057  00000+0  13180-4 0  9991
2 43931  86.3913 268.4125 0002164  94.7567 265.3876 14.34217417294692
IRIDIUM 181             
1 56726U 23068S   24241.47359404  .00001048  00000+0  30375-3 0  9997
2 56726  86.8670 325.6976 0001855  94.8648 265.2765 14.43587012 67561
IRIDIUM 177             
1 56727U 23068T   24241.82934817  .00002934  00000+0  38262-3 0  9992
2 56727  86.1937 280.8678 0002098  92.8309 267.3152 14.80234609 69123
IRIDIUM 174             
1 56728U 23068U   24241.55350863  .00003908  00000+0  51068-3 0  9997
2 56728  86.1942 281.1074 0001873 102.0679 258.0752 14.80233531 69089
IRIDIUM 178             
1 56729U 23068V   24241.54809120  .00003079  00000+0  40165-3 0  9997
2 56729  86.5773 302.0152 0002062 101.8062 258.3391 14.80241710 69080
IRIDIUM 179             
1 56730U 23068W   24241.47504078  .00003506  00000+0  45856-3 0  9992
2 56730  86.6791 307.0936 0002235  85.3260 274.8217 14.80169239 69070
